[{"OBJECT_NAME":"STARLINK-32539","OBJECT_ID":"2024-213Q","EPOCH":"2026-03-09T12:39:14.059584","MEAN_MOTION":15.30177862,"ECCENTRICITY":0.00012278,"INCLINATION":53.1573,"RA_OF_ASC_NODE":156.3628,"ARG_OF_PERICENTER":77.2127,"MEAN_ANOMALY":282.9011,"EPHEMERIS_TYPE":0,"CLASSIFICATION_TYPE":"U","NORAD_CAT_ID":62022,"ELEMENT_SET_NO":999,"REV_AT_EPOCH":7330,"BSTAR":0.0010389459,"MEAN_MOTION_DOT":0.00030517,"MEAN_MOTION_DDOT":0},{"OBJECT_NAME":"CZ-6A DEB","OBJECT_ID":"2024-140ABG","EPOCH":"2026-03-09T16:43:29.524800","MEAN_MOTION":15.18896608,"ECCENTRICITY":0.00616087,"INCLINATION":89.2171,"RA_OF_ASC_NODE":295.9508,"ARG_OF_PERICENTER":79.2706,"MEAN_ANOMALY":281.5467,"EPHEMERIS_TYPE":0,"CLASSIFICATION_TYPE":"U","NORAD_CAT_ID":61498,"ELEMENT_SET_NO":999,"REV_AT_EPOCH":8006,"BSTAR":0.0048163661,"MEAN_MOTION_DOT":0.0010689,"MEAN_MOTION_DDOT":0}]
